start=new Date('2023-03-11T00:00:00.000Z').valueOf();
sats=[{"OBJECT_ID":"2022-097AC","PERIAPSIS":"537.631","NORAD_CAT_ID":"53414","TLE_LINE1":"1 53414U 22097AC  23069.48153199  .00001964  00000-0  14148-3 0  9998","FILE":"3856975","ELEMENT_SET_NO":"999","TLE_LINE2":"2 53414  53.2201 350.7068 0003031  22.2690 337.8434 15.08845657 33309","INCLINATION":"53.2201","RA_OF_ASC_NODE":"350.7068","SEMIMAJOR_AXIS":"6917.863","EPHEMERIS_TYPE":"0","APOAPSIS":"541.825","MEAN_ELEMENT_THEORY":"SGP4","DECAY_DATE":null,"MEAN_MOTION":"15.08845657","CLASSIFICATION_TYPE":"U","BSTAR":"0.00014148000000","MEAN_MOTION_DOT":"0.00001964","LAUNCH_DATE":"2022-08-10","OBJECT_TYPE":"PAYLOAD","OBJECT_NAME":"STARLINK-4304","ECCENTRICITY":"0.00030310","TIME_SYSTEM":"UTC","ARG_OF_PERICENTER":"22.2690","REV_AT_EPOCH":"3330","COUNTRY_CODE":"US","CENTER_NAME":"EARTH","SITE":"AFETR","MEAN_MOTION_DDOT":"0.0000000000000","RCS_SIZE":"LARGE","REF_FRAME":"TEME","PERIOD":"95.437","GP_ID":"227816767","EPOCH":"2023-03-10T11:33:24.363936","MEAN_ANOMALY":"337.8434"},{"OBJECT_TYPE":"PAYLOAD","LAUNCH_DATE":"2022-08-10","MEAN_MOTION_DOT":"-0.00001704","BSTAR":"-0.00008896100000","OBJECT_NAME":"STARLINK-4479","TLE_LINE2":"2 53415  53.2168 349.5343 0002570  86.0349 274.0937 15.08835604 33323","TLE_LINE1":"1 53415U 22097AD  23069.74284352 -.00001704  00000-0 -88961-4 0  9993","ELEMENT_SET_NO":"999","FILE":"3856975","NORAD_CAT_ID":"53415","PERIAPSIS":"537.981","OBJECT_ID":"2022-097AD","CLASSIFICATION_TYPE":"U","MEAN_MOTION":"15.08835604","DECAY_DATE":null,"MEAN_ELEMENT_THEORY":"SGP4","APOAPSIS":"541.537","EPHEMERIS_TYPE":"0","RA_OF_ASC_NODE":"349.5343","SEMIMAJOR_AXIS":"6917.894","INCLINATION":"53.2168","RCS_SIZE":"LARGE","MEAN_ANOMALY":"274.0937","EPOCH":"2023-03-10T17:49:41.680128","GP_ID":"227817519","PERIOD":"95.438","REF_FRAME":"TEME","REV_AT_EPOCH":"3332","COUNTRY_CODE":"US","ARG_OF_PERICENTER":"86.0349","TIME_SYSTEM":"UTC","ECCENTRICITY":"0.00025700","MEAN_MOTION_DDOT":"0.0000000000000","SITE":"AFETR","CENTER_NAME":"EARTH"},{"RCS_SIZE":"LARGE","MEAN_ANOMALY":"323.0112","EPOCH":"2023-03-10T19:03:52.922592","GP_ID":"227818269","PERIOD":"95.438","REF_FRAME":"TEME","REV_AT_EPOCH":"3333","COUNTRY_CODE":"US","ARG_OF_PERICENTER":"37.0964","TIME_SYSTEM":"UTC","ECCENTRICITY":"0.00012080","MEAN_MOTION_DDOT":"0.0000000000000","SITE":"AFETR","CENTER_NAME":"EARTH","OBJECT_TYPE":"PAYLOAD","LAUNCH_DATE":"2022-08-10","MEAN_MOTION_DOT":"0.00001093","BSTAR":"0.00008674800000","OBJECT_NAME":"STARLINK-4480","TLE_LINE2":"2 53416  53.2181 349.2512 0001208  37.0964 323.0112 15.08833780 33334","FILE":"3856975","TLE_LINE1":"1 53416U 22097AE  23069.79436253  .00001093  00000-0  86748-4 0  9998","ELEMENT_SET_NO":"999","NORAD_CAT_ID":"53416","PERIAPSIS":"538.929","OBJECT_ID":"2022-097AE","CLASSIFICATION_TYPE":"U","DECAY_DATE":null,"MEAN_MOTION":"15.08833780","MEAN_ELEMENT_THEORY":"SGP4","APOAPSIS":"540.600","EPHEMERIS_TYPE":"0","RA_OF_ASC_NODE":"349.2512","SEMIMAJOR_AXIS":"6917.899","INCLINATION":"53.2181"},{"GP_ID":"227817017","REF_FRAME":"TEME","PERIOD":"95.439","MEAN_ANOMALY":"274.4731","EPOCH":"2023-03-10T11:22:50.984544","RCS_SIZE":"LARGE","CENTER_NAME":"EARTH","MEAN_MOTION_DDOT":"0.0000000000000","SITE":"AFETR","TIME_SYSTEM":"UTC","ECCENTRICITY":"0.00014040","COUNTRY_CODE":"US","REV_AT_EPOCH":"3328","ARG_OF_PERICENTER":"85.6422","OBJECT_NAME":"STARLINK-4484","MEAN_MOTION_DOT":"-0.00022891","BSTAR":"-0.00142570000000","OBJECT_TYPE":"PAYLOAD","LAUNCH_DATE":"2022-08-10","EPHEMERIS_TYPE":"0","APOAPSIS":"540.792","INCLINATION":"53.2183","RA_OF_ASC_NODE":"350.7353","SEMIMAJOR_AXIS":"6917.956","CLASSIFICATION_TYPE":"U","MEAN_ELEMENT_THEORY":"SGP4","MEAN_MOTION":"15.08815353","DECAY_DATE":null,"OBJECT_ID":"2022-097AF","FILE":"3856975","TLE_LINE1":"1 53417U 22097AF  23069.47420121 -.00022891  00000-0 -14257-2 0  9996","ELEMENT_SET_NO":"999","TLE_LINE2":"2 53417  53.2183 350.7353 0001404  85.6422 274.4731 15.08815353 33289","PERIAPSIS":"538.849","NORAD_CAT_ID":"53417"},{"REF_FRAME":"TEME","PERIOD":"95.439","GP_ID":"227817267","EPOCH":"2023-03-10T21:33:30.897792","MEAN_ANOMALY":"250.5007","RCS_SIZE":"LARGE","CENTER_NAME":"EARTH","SITE":"AFETR","MEAN_MOTION_DDOT":"0.0000000000000","ECCENTRICITY":"0.00011090","TIME_SYSTEM":"UTC","ARG_OF_PERICENTER":"109.6105","REV_AT_EPOCH":"3352","COUNTRY_CODE":"US","OBJECT_NAME":"STARLINK-4481","BSTAR":"0.00055912000000","MEAN_MOTION_DOT":"0.00008617","LAUNCH_DATE":"2022-08-10","OBJECT_TYPE":"PAYLOAD","INCLINATION":"53.2161","SEMIMAJOR_AXIS":"6917.936","RA_OF_ASC_NODE":"338.4013","EPHEMERIS_TYPE":"0","APOAPSIS":"540.568","MEAN_ELEMENT_THEORY":"SGP4","DECAY_DATE":null,"MEAN_MOTION":"15.08821709","CLASSIFICATION_TYPE":"U","OBJECT_ID":"2022-097AG","PERIAPSIS":"539.034","NORAD_CAT_ID":"53418","FILE":"3856975","TLE_LINE1":"1 53418U 22097AG  23069.89827428  .00008617  00000-0  55912-3 0  9996","ELEMENT_SET_NO":"999","TLE_LINE2":"2 53418  53.2161 338.4013 0001109 109.6105 250.5007 15.08821709 33529"},{"ARG_OF_PERICENTER":"109.9663","REV_AT_EPOCH":"3333","COUNTRY_CODE":"US","ECCENTRICITY":"0.00018950","TIME_SYSTEM":"UTC","SITE":"AFETR","MEAN_MOTION_DDOT":"0.0000000000000","CENTER_NAME":"EARTH","RCS_SIZE":"LARGE","EPOCH":"2023-03-10T19:14:29.035680","MEAN_ANOMALY":"250.1533","REF_FRAME":"TEME","PERIOD":"95.440","GP_ID":"227818019","PERIAPSIS":"538.552","NORAD_CAT_ID":"53419","TLE_LINE1":"1 53419U 22097AH  23069.80172495 -.00010272  00000-0 -62885-3 0  9994","FILE":"3856975","ELEMENT_SET_NO":"999","TLE_LINE2":"2 53419  53.2156 349.2691 0001895 109.9663 250.1533 15.08801555 33336","OBJECT_ID":"2022-097AH","MEAN_ELEMENT_THEORY":"SGP4","DECAY_DATE":null,"MEAN_MOTION":"15.08801555","CLASSIFICATION_TYPE":"U","INCLINATION":"53.2156","SEMIMAJOR_AXIS":"6917.998","RA_OF_ASC_NODE":"349.2691","EPHEMERIS_TYPE":"0","APOAPSIS":"541.174","LAUNCH_DATE":"2022-08-10","OBJECT_TYPE":"PAYLOAD","BSTAR":"-0.00062885000000","MEAN_MOTION_DOT":"-0.00010272","OBJECT_NAME":"STARLINK-4476"},{"CLASSIFICATION_TYPE":"U","MEAN_ELEMENT_THEORY":"SGP4","DECAY_DATE":null,"MEAN_MOTION":"15.08834809","EPHEMERIS_TYPE":"0","APOAPSIS":"540.040","INCLINATION":"53.2160","RA_OF_ASC_NODE":"349.0220","SEMIMAJOR_AXIS":"6917.896","ELEMENT_SET_NO":"999","TLE_LINE1":"1 53420U 22097AJ  23069.85692461  .00001200  00000-0  93450-4 0  9993","FILE":"3856975","TLE_LINE2":"2 53420  53.2160 349.0220 0000403 347.6685  12.4298 15.08834809 33344","PERIAPSIS":"539.482","NORAD_CAT_ID":"53420","OBJECT_ID":"2022-097AJ","OBJECT_NAME":"STARLINK-4552","OBJECT_TYPE":"PAYLOAD","LAUNCH_DATE":"2022-08-10","MEAN_MOTION_DOT":"0.00001200","BSTAR":"0.00009345000000","MEAN_MOTION_DDOT":"0.0000000000000","SITE":"AFETR","CENTER_NAME":"EARTH","COUNTRY_CODE":"US","REV_AT_EPOCH":"3334","ARG_OF_PERICENTER":"347.6685","TIME_SYSTEM":"UTC","ECCENTRICITY":"0.00004030","MEAN_ANOMALY":"12.4298","EPOCH":"2023-03-10T20:33:58.286304","GP_ID":"227817770","REF_FRAME":"TEME","PERIOD":"95.438","RCS_SIZE":"LARGE"},{"OBJECT_NAME":"STARLINK-4545","OBJECT_TYPE":"PAYLOAD","LAUNCH_DATE":"2022-08-10","MEAN_MOTION_DOT":"-0.00009333","BSTAR":"-0.00056906000000","CLASSIFICATION_TYPE":"U","DECAY_DATE":null,"MEAN_MOTION":"15.08836729","MEAN_ELEMENT_THEORY":"SGP4","APOAPSIS":"541.033","EPHEMERIS_TYPE":"0","SEMIMAJOR_AXIS":"6917.890","RA_OF_ASC_NODE":"350.7724","INCLINATION":"53.2172","TLE_LINE2":"2 53421  53.2172 350.7724 0001847  74.7431 285.3766 15.08836729 33283","TLE_LINE1":"1 53421U 22097AK  23069.46683884 -.00009333  00000-0 -56906-3 0  9991","FILE":"3856975","ELEMENT_SET_NO":"999","NORAD_CAT_ID":"53421","PERIAPSIS":"538.478","OBJECT_ID":"2022-097AK","MEAN_ANOMALY":"285.3766","EPOCH":"2023-03-10T11:12:14.875776","GP_ID":"227816519","PERIOD":"95.438","REF_FRAME":"TEME","RCS_SIZE":"LARGE","MEAN_MOTION_DDOT":"0.0000000000000","SITE":"AFETR","CENTER_NAME":"EARTH","COUNTRY_CODE":"US","REV_AT_EPOCH":"3328","ARG_OF_PERICENTER":"74.7431","TIME_SYSTEM":"UTC","ECCENTRICITY":"0.00018470"},{"ARG_OF_PERICENTER":"66.8107","REV_AT_EPOCH":"3335","COUNTRY_CODE":"US","ECCENTRICITY":"0.00015720","TIME_SYSTEM":"UTC","SITE":"AFETR","MEAN_MOTION_DDOT":"0.0000000000000","CENTER_NAME":"EARTH","RCS_SIZE":"LARGE","EPOCH":"2023-03-10T18:47:59.905536","MEAN_ANOMALY":"293.3050","REF_FRAME":"TEME","PERIOD":"95.438","GP_ID":"227816768","PERIAPSIS":"538.686","NORAD_CAT_ID":"53422","TLE_LINE1":"1 53422U 22097AL  23069.78333224  .00018305  00000-0  11655-2 0  9995","ELEMENT_SET_NO":"999","FILE":"3856975","TLE_LINE2":"2 53422  53.2155 349.3518 0001572  66.8107 293.3050 15.08830912 33358","OBJECT_ID":"2022-097AL","MEAN_ELEMENT_THEORY":"SGP4","MEAN_MOTION":"15.08830912","DECAY_DATE":null,"CLASSIFICATION_TYPE":"U","INCLINATION":"53.2155","SEMIMAJOR_AXIS":"6917.908","RA_OF_ASC_NODE":"349.3518","EPHEMERIS_TYPE":"0","APOAPSIS":"540.861","LAUNCH_DATE":"2022-08-10","OBJECT_TYPE":"PAYLOAD","BSTAR":"0.00116550000000","MEAN_MOTION_DOT":"0.00018305","OBJECT_NAME":"STARLINK-4546"},{"REV_AT_EPOCH":"3333","COUNTRY_CODE":"US","ARG_OF_PERICENTER":"65.0942","TIME_SYSTEM":"UTC","ECCENTRICITY":"0.00016350","MEAN_MOTION_DDOT":"0.0000000000000","SITE":"AFETR","CENTER_NAME":"EARTH","RCS_SIZE":"LARGE","MEAN_ANOMALY":"295.0220","EPOCH":"2023-03-10T19:05:15.884736","GP_ID":"227817520","PERIOD":"95.438","REF_FRAME":"TEME","TLE_LINE2":"2 53423  53.2177 349.3042 0001635  65.0942 295.0220 15.08830597 33338","TLE_LINE1":"1 53423U 22097AM  23069.79532274 -.00000759  00000-0 -29587-4 0  9994","ELEMENT_SET_NO":"999","FILE":"3856975","NORAD_CAT_ID":"53423","PERIAPSIS":"538.643","OBJECT_ID":"2022-097AM","CLASSIFICATION_TYPE":"U","DECAY_DATE":null,"MEAN_MOTION":"15.08830597","MEAN_ELEMENT_THEORY":"SGP4","APOAPSIS":"540.905","EPHEMERIS_TYPE":"0","SEMIMAJOR_AXIS":"6917.909","RA_OF_ASC_NODE":"349.3042","INCLINATION":"53.2177","OBJECT_TYPE":"PAYLOAD","LAUNCH_DATE":"2022-08-10","MEAN_MOTION_DOT":"-0.00000759","BSTAR":"-0.00002958700000","OBJECT_NAME":"STARLINK-4539"}];
